{
  "type": "FeatureCollection",
  "features": [
    {
      "type": "Feature",
      "properties": {
        "norad_id": 66726,
        "name": "FLOCK 4H-23",
        "group": "last-30-days",
        "lat": -10.357291571825726,
        "lon": 74.51947457455839,
        "alt_km": 519.9327407990604,
        "timestamp": "2025-12-27T15:27:09.829922+00:00",
        "meta_object_name": "FLOCK 4H-23",
        "meta_object_id": "2025-276BN",
        "meta_epoch": "2025-12-27T04:25:08.965056",
        "meta_mean_motion": 15.1727451,
        "meta_eccentricity": 0.00036528,
        "meta_inclination": 97.4436,
        "meta_ra_of_asc_node": 72.6986,
        "meta_arg_of_pericenter": 223.549,
        "meta_mean_anomaly": 136.5456,
        "meta_ephemeris_type": 0,
        "meta_classification_type": "U",
        "meta_norad_cat_id": 66726,
        "meta_element_set_no": 999,
        "meta_rev_at_epoch": 431,
        "meta_bstar": 0.00030339039,
        "meta_mean_motion_dot": 5.977e-05,
        "meta_mean_motion_ddot": 0,
        "tle_line1": "1 66726U 25276BN  25361.18413154  .00005977  00000+0  30339-3 0  9991",
        "tle_line2": "2 66726  97.4436  72.6986 0003652 223.5490 136.5456 15.17274510  4312"
      },
      "geometry": {
        "type": "Point",
        "coordinates": [
          74.51947457455839,
          -10.357291571825726
        ]
      }
    },
    {
      "type": "Feature",
      "properties": {
        "norad_id": 66727,
        "name": "FLOCK 4H-24",
        "group": "last-30-days",
        "lat": 0.5020506162677775,
        "lon": 73.09143593562953,
        "alt_km": 517.8229454414295,
        "timestamp": "2025-12-27T15:27:09.829934+00:00",
        "meta_object_name": "FLOCK 4H-24",
        "meta_object_id": "2025-276BP",
        "meta_epoch": "2025-12-27T05:57:15.964416",
        "meta_mean_motion": 15.17381069,
        "meta_eccentricity": 0.00029472,
        "meta_inclination": 97.4435,
        "meta_ra_of_asc_node": 72.7682,
        "meta_arg_of_pericenter": 240.5949,
        "meta_mean_anomaly": 119.499,
        "meta_ephemeris_type": 0,
        "meta_classification_type": "U",
        "meta_norad_cat_id": 66727,
        "meta_element_set_no": 999,
        "meta_rev_at_epoch": 432,
        "meta_bstar": 0.00030617698,
        "meta_mean_motion_dot": 6.051e-05,
        "meta_mean_motion_ddot": 0,
        "tle_line1": "1 66727U 25276BP  25361.24810144  .00006051  00000+0  30618-3 0  9993",
        "tle_line2": "2 66727  97.4435  72.7682 0002947 240.5949 119.4990 15.17381069  4322"
      },
      "geometry": {
        "type": "Point",
        "coordinates": [
          73.09143593562953,
          0.5020506162677775
        ]
      }
    },
    {
      "type": "Feature",
      "properties": {
        "norad_id": 66728,
        "name": "FLOCK 4H-25",
        "group": "last-30-days",
        "lat": 82.056367146886,
        "lon": -37.36867100249059,
        "alt_km": 502.4652833187547,
        "timestamp": "2025-12-27T15:27:09.829944+00:00",
        "meta_object_name": "FLOCK 4H-25",
        "meta_object_id": "2025-276BQ",
        "meta_epoch": "2025-12-27T05:33:18.633024",
        "meta_mean_motion": 15.18268911,
        "meta_eccentricity": 0.00017587,
        "meta_inclination": 97.4391,
        "meta_ra_of_asc_node": 72.7713,
        "meta_arg_of_pericenter": 114.5883,
        "meta_mean_anomaly": 245.5534,
        "meta_ephemeris_type": 0,
        "meta_classification_type": "U",
        "meta_norad_cat_id": 66728,
        "meta_element_set_no": 999,
        "meta_rev_at_epoch": 360,
        "meta_bstar": 0.0003458312,
        "meta_mean_motion_dot": 7.021e-05,
        "meta_mean_motion_ddot": 0,
        "tle_line1": "1 66728U 25276BQ  25361.23146566  .00007021  00000+0  34583-3 0  9996",
        "tle_line2": "2 66728  97.4391  72.7713 0001758 114.5883 245.5534 15.18268911  3601"
      },
      "geometry": {
        "type": "Point",
        "coordinates": [
          -37.36867100249059,
          82.056367146886
        ]
      }
    },
    {
      "type": "Feature",
      "properties": {
        "norad_id": 66729,
        "name": "FLOCK 4H-26",
        "group": "last-30-days",
        "lat": -19.64479073705108,
        "lon": 75.80097411181156,
        "alt_km": 520.1143138894304,
        "timestamp": "2025-12-27T15:27:09.829957+00:00",
        "meta_object_name": "FLOCK 4H-26",
        "meta_object_id": "2025-276BR",
        "meta_epoch": "2025-12-27T06:02:33.979488",
        "meta_mean_motion": 15.17209761,
        "meta_eccentricity": 0.00036565,
        "meta_inclination": 97.4386,
        "meta_ra_of_asc_node": 72.7429,
        "meta_arg_of_pericenter": 237.5223,
        "meta_mean_anomaly": 122.5658,
        "meta_ephemeris_type": 0,
        "meta_classification_type": "U",
        "meta_norad_cat_id": 66729,
        "meta_element_set_no": 999,
        "meta_rev_at_epoch": 432,
        "meta_bstar": 0.00040660091,
        "meta_mean_motion_dot": 8.02e-05,
        "meta_mean_motion_ddot": 0,
        "tle_line1": "1 66729U 25276BR  25361.25178217  .00008020  00000+0  40660-3 0  9990",
        "tle_line2": "2 66729  97.4386  72.7429 0003656 237.5223 122.5658 15.17209761  4321"
      },
      "geometry": {
        "type": "Point",
        "coordinates": [
          75.80097411181156,
          -19.64479073705108
        ]
      }
    },
    {
      "type": "Feature",
      "properties": {
        "norad_id": 66730,
        "name": "FLOCK 4H-27",
        "group": "last-30-days",
        "lat": 76.6536924132976,
        "lon": 39.75684086547148,
        "alt_km": 503.29854805396553,
        "timestamp": "2025-12-27T15:27:09.829967+00:00",
        "meta_object_name": "FLOCK 4H-27",
        "meta_object_id": "2025-276BS",
        "meta_epoch": "2025-12-27T05:36:55.266336",
        "meta_mean_motion": 15.18156336,
        "meta_eccentricity": 0.00018133,
        "meta_inclination": 97.4364,
        "meta_ra_of_asc_node": 72.7587,
        "meta_arg_of_pericenter": 127.4119,
        "meta_mean_anomaly": 232.728,
        "meta_ephemeris_type": 0,
        "meta_classification_type": "U",
        "meta_norad_cat_id": 66730,
        "meta_element_set_no": 999,
        "meta_rev_at_epoch": 432,
        "meta_bstar": 0.0009864839,
        "meta_mean_motion_dot": 0.0002012,
        "meta_mean_motion_ddot": 0,
        "tle_line1": "1 66730U 25276BS  25361.23397299  .00020120  00000+0  98648-3 0  9997",
        "tle_line2": "2 66730  97.4364  72.7587 0001813 127.4119 232.7280 15.18156336  4323"
      },
      "geometry": {
        "type": "Point",
        "coordinates": [
          39.75684086547148,
          76.6536924132976
        ]
      }
    },
    {
      "type": "Feature",
      "properties": {
        "norad_id": 66731,
        "name": "FLOCK 4H-28",
        "group": "last-30-days",
        "lat": -18.175397166811962,
        "lon": 75.58199239242957,
        "alt_km": 519.9010782214073,
        "timestamp": "2025-12-27T15:27:09.829978+00:00",
        "meta_object_name": "FLOCK 4H-28",
        "meta_object_id": "2025-276BT",
        "meta_epoch": "2025-12-27T06:02:10.167648",
        "meta_mean_motion": 15.17195704,
        "meta_eccentricity": 0.00033603,
        "meta_inclination": 97.4373,
        "meta_ra_of_asc_node": 72.7389,
        "meta_arg_of_pericenter": 240.7929,
        "meta_mean_anomaly": 119.2969,
        "meta_ephemeris_type": 0,
        "meta_classification_type": "U",
        "meta_norad_cat_id": 66731,
        "meta_element_set_no": 999,
        "meta_rev_at_epoch": 432,
        "meta_bstar": 0.0004994524,
        "meta_mean_motion_dot": 9.865e-05,
        "meta_mean_motion_ddot": 0,
        "tle_line1": "1 66731U 25276BT  25361.25150657  .00009865  00000+0  49945-3 0  9994",
        "tle_line2": "2 66731  97.4373  72.7389 0003360 240.7929 119.2969 15.17195704  4325"
      },
      "geometry": {
        "type": "Point",
        "coordinates": [
          75.58199239242957,
          -18.175397166811962
        ]
      }
    },
    {
      "type": "Feature",
      "properties": {
        "norad_id": 66732,
        "name": "FLOCK 4H-29",
        "group": "last-30-days",
        "lat": -3.757959018048582,
        "lon": 73.6160661906261,
        "alt_km": 517.7743055981182,
        "timestamp": "2025-12-27T15:27:09.829990+00:00",
        "meta_object_name": "FLOCK 4H-29",
        "meta_object_id": "2025-276BU",
        "meta_epoch": "2025-12-27T07:33:20.335680",
        "meta_mean_motion": 15.17315513,
        "meta_eccentricity": 0.00021694,
        "meta_inclination": 97.4367,
        "meta_ra_of_asc_node": 72.8015,
        "meta_arg_of_pericenter": 257.5819,
        "meta_mean_anomaly": 102.5172,
        "meta_ephemeris_type": 0,
        "meta_classification_type": "U",
        "meta_norad_cat_id": 66732,
        "meta_element_set_no": 999,
        "meta_rev_at_epoch": 433,
        "meta_bstar": 6.6574393e-05,
        "meta_mean_motion_dot": 1.261e-05,
        "meta_mean_motion_ddot": 0,
        "tle_line1": "1 66732U 25276BU  25361.31481870  .00001261  00000+0  66574-4 0  9996",
        "tle_line2": "2 66732  97.4367  72.8015 0002169 257.5819 102.5172 15.17315513  4330"
      },
      "geometry": {
        "type": "Point",
        "coordinates": [
          73.6160661906261,
          -3.757959018048582
        ]
      }
    }
  ]
}